[{"OBJECT_NAME":"STARLINK-5274","OBJECT_ID":"2023-014E","EPOCH":"2026-03-09T09:12:35.477280","MEAN_MOTION":14.98326744,"ECCENTRICITY":0.00030905,"INCLINATION":70,"RA_OF_ASC_NODE":65.0584,"ARG_OF_PERICENTER":264.8556,"MEAN_ANOMALY":95.2251,"EPHEMERIS_TYPE":0,"CLASSIFICATION_TYPE":"U","NORAD_CAT_ID":55395,"ELEMENT_SET_NO":999,"REV_AT_EPOCH":17201,"BSTAR":-4.1288815e-5,"MEAN_MOTION_DOT":-5.86e-6,"MEAN_MOTION_DDOT":0},{"OBJECT_NAME":"CZ-4C R\/B","OBJECT_ID":"2024-186B","EPOCH":"2026-03-09T22:51:12.491424","MEAN_MOTION":15.07425891,"ECCENTRICITY":0.00475116,"INCLINATION":97.8722,"RA_OF_ASC_NODE":96.5934,"ARG_OF_PERICENTER":122.4234,"MEAN_ANOMALY":238.1602,"EPHEMERIS_TYPE":0,"CLASSIFICATION_TYPE":"U","NORAD_CAT_ID":61572,"ELEMENT_SET_NO":999,"REV_AT_EPOCH":7672,"BSTAR":0.00027865777,"MEAN_MOTION_DOT":4.262e-5,"MEAN_MOTION_DDOT":0}]
